OBJECT_NAME,OBJECT_ID,EPOCH,MEAN_MOTION,ECCENTRICITY,INCLINATION,RA_OF_ASC_NODE,ARG_OF_PERICENTER,MEAN_ANOMALY,EPHEMERIS_TYPE,CLASSIFICATION_TYPE,NORAD_CAT_ID,ELEMENT_SET_NO,REV_AT_EPOCH,BSTAR,MEAN_MOTION_DOT,MEAN_MOTION_DDOT
NUVIEW BRAVO,2024-252D,2026-06-07T11:19:16.238208,1.00271735,.0001777,0.0686,145.8017,332.7312,224.0544,0,U,62457,999,369,0,-.2E-5,0
THURAYA-4,2025-001A,2026-06-07T16:24:45.618912,1.00272752,.0000032,0.0238,63.1121,16.5223,106.9540,0,U,62483,999,408,0,.154E-5,0
SHIJIAN-25 (SJ-25),2025-002A,2026-06-07T18:38:12.865920,1.00274168,.0051967,5.0898,61.2190,172.8822,68.9603,0,U,62485,999,526,0,-.335E-5,0
TJS-14,2025-017A,2026-06-07T20:21:34.327008,1.00271034,.0000689,0.8047,294.9198,279.1660,5.9156,0,U,62804,999,517,0,.13E-5,0
SPAINSAT NG I,2025-021A,2026-06-07T17:00:07.017120,1.00273834,.0000314,0.0027,349.7864,204.9466,345.4213,0,U,62852,999,389,0,.166E-5,0
QZS-6 (MICHIBIKI-6),2025-023A,2026-06-07T16:42:21.735360,1.00274135,.0002,0.0288,49.4098,34.7892,152.9844,0,U,62876,999,485,0,-.219E-5,0
ZHONGXING-10R,2025-036A,2026-06-07T19:05:34.211040,1.00270150,.0003342,0.0446,250.9065,251.3716,150.8463,0,U,63075,999,486,0,-.337E-5,0
TJS-15,2025-045A,2026-06-07T17:17:50.716032,1.00268269,.0005413,0.2768,85.4125,298.5865,225.9531,0,U,63157,999,466,0,-.249E-5,0
TIANLIAN 2-04,2025-062A,2026-06-07T20:39:07.817760,1.00270385,.003146,4.3998,274.5728,10.5793,0.9462,0,U,63361,999,451,0,-.121E-5,0
TJS-16,2025-064A,2026-06-07T18:35:59.515296,1.00272157,.0003606,1.0729,81.5109,292.5698,321.6958,0,U,63397,999,429,0,-.9E-6,0
TJS-17,2025-073A,2026-06-07T18:36:07.262784,1.00272271,.0002371,1.0387,82.7755,300.4090,316.5395,0,U,63524,999,419,0,-.54E-6,0
TIANLIAN 2-05,2025-084A,2026-06-07T01:32:50.050752,1.00271781,.0003512,4.4779,279.9503,145.3561,233.7856,0,U,63662,999,428,0,.136E-5,0
TJS-19,2025-097A,2026-06-07T18:37:44.513760,1.00269548,.0002038,3.3030,317.2737,234.6960,124.9234,0,U,63924,999,404,0,-.264E-5,0
CHINASAT 3B,2025-106A,2026-06-07T19:21:19.262880,1.00271809,.0002886,0.0381,144.0150,330.8027,239.0534,0,U,64062,999,396,0,-.3E-6,0
SXM-10,2025-122A,2026-06-07T16:17:49.635744,1.00270656,.0001754,0.0171,15.4671,357.0715,11.8306,0,U,64290,999,358,0,-.2E-7,0
COSMOS 2589,2025-131A,2026-06-07T18:03:29.155392,1.00272244,.0001205,0.0438,71.9827,72.8146,120.2091,0,U,64467,999,346,0,-.276E-5,0
CHINASAT 9C,2025-132A,2026-06-07T17:28:31.777248,1.00272651,.0002843,0.0283,261.2593,175.9684,173.2475,0,U,64470,999,405,0,-.233E-5,0
MTG-S1,2025-143A,2026-06-07T16:50:00.488256,1.00271639,.0001072,0.6118,336.7868,31.0379,137.3027,0,U,64723,999,332,0,-.17E-6,0
DROR 1,2025-148A,2026-06-07T16:49:52.999104,1.00271715,.0002882,0.0092,353.9091,37.2632,113.3936,0,U,64784,999,320,0,-.19E-6,0
SHIYAN-29,2025-196A,2026-06-07T18:35:52.484928,1.00257132,.0010893,28.8107,18.6555,171.3645,79.2758,0,U,65486,999,278,0,-.258E-5,0
NUSANTARA LIMA (NUSANTARA 5),2025-205A,2026-06-07T17:04:11.014176,1.00273144,.0000456,0.0350,146.7013,322.1604,156.1490,0,U,65588,999,262,0,-.343E-5,0
TJS-20,2025-238A,2026-06-07T18:02:41.985312,1.00272679,.0004747,5.4916,299.5864,156.6079,133.0166,0,U,66142,999,223,0,.35E-6,0
CMS-03 (GSAT-7R),2025-249B,2026-06-07T17:12:06.266016,1.00271435,.0001826,0.0271,260.6507,173.6897,153.8026,0,U,66311,999,225,0,-.62E-6,0
VIASAT-3 F2,2025-261A,2026-06-07T18:11:01.205376,1.00266584,.0000117,0.0131,105.6233,285.8867,58.4009,0,U,66454,999,269,0,0,0
SHIJIAN-28 (SJ-28),2025-277A,2026-06-07T17:24:20.678112,1.00268560,.0000481,4.5638,272.2840,355.5633,6.2502,0,U,66549,999,206,0,-.347E-5,0
TJS-22,2025-290A,2026-06-06T21:40:41.604384,1.00271914,.0001988,1.5530,286.4527,332.9663,27.5119,0,U,66990,999,192,0,.7E-7,0
TJS-23,2025-306A,2026-06-07T15:04:29.922240,1.00273160,.0005086,5.6092,297.5406,164.9860,195.1087,0,U,67226,999,179,0,.28E-6,0
FENGYUN 4C,2025-312A,2026-06-07T07:12:53.623296,1.00271188,.0000559,0.0424,147.7402,25.5803,323.6123,0,U,67246,999,168,0,-.308E-5,0
SHIJIAN-29A (SJ-29A),2025-315A,2026-06-07T17:38:56.642784,1.00269963,.0003287,3.3727,95.3464,21.0962,117.6765,0,U,67302,999,152,0,-.52E-6,0
SHIJIAN-29B (SJ-29B),2025-315C,2026-06-07T17:34:48.933120,1.00269952,.0003619,3.3716,95.3392,24.7118,113.0781,0,U,67403,999,159,0,-.53E-6,0
ELEKTRO-L 5,2026-028A,2026-06-07T01:53:57.232032,1.00271265,.0001589,0.2701,308.2377,182.1941,229.5901,0,U,67756,999,115,0,-.83E-6,0
JAM-E JAM 1,2026-028B,2026-06-07T18:50:57.396192,1.00271509,.0000878,0.2808,299.4305,300.7275,332.6627,0,U,67757,999,102,0,.171E-5,0
