NUVIEW BRAVO            
1 62457U 24252D   26158.47171572 -.00000200  00000+0  00000+0 0  9996
2 62457   0.0686 145.8017 0001777 332.7312 224.0544  1.00271735  3690
THURAYA-4               
1 62483U 25001A   26158.68386133  .00000154  00000+0  00000+0 0  9999
2 62483   0.0238  63.1121 0000032  16.5223 106.9540  1.00272752  4089
SHIJIAN-25 (SJ-25)      
1 62485U 25002A   26158.77653780 -.00000335  00000+0  00000+0 0  9999
2 62485   5.0898  61.2190 0051967 172.8822  68.9603  1.00274168  5268
TJS-14                  
1 62804U 25017A   26158.84831397  .00000130  00000+0  00000+0 0  9992
2 62804   0.8047 294.9198 0000689 279.1660   5.9156  1.00271034  5174
SPAINSAT NG I           
1 62852U 25021A   26158.70841455  .00000166  00000+0  00000+0 0  9990
2 62852   0.0027 349.7864 0000314 204.9466 345.4213  1.00273834  3894
QZS-6 (MICHIBIKI-6)     
1 62876U 25023A   26158.69608490 -.00000219  00000+0  00000+0 0  9996
2 62876   0.0288  49.4098 0002000  34.7892 152.9844  1.00274135  4851
ZHONGXING-10R           
1 63075U 25036A   26158.79553485 -.00000337  00000+0  00000+0 0  9997
2 63075   0.0446 250.9065 0003342 251.3716 150.8463  1.00270150  4862
TJS-15                  
1 63157U 25045A   26158.72072588 -.00000249  00000+0  00000+0 0  9993
2 63157   0.2768  85.4125 0005413 298.5865 225.9531  1.00268269  4665
TIANLIAN 2-04           
1 63361U 25062A   26158.86050715 -.00000121  00000+0  00000+0 0  9991
2 63361   4.3998 274.5728 0031460  10.5793   0.9462  1.00270385  4515
TJS-16                  
1 63397U 25064A   26158.77499439 -.00000090  00000+0  00000+0 0  9997
2 63397   1.0729  81.5109 0003606 292.5698 321.6958  1.00272157  4293
TJS-17                  
1 63524U 25073A   26158.77508406 -.00000054  00000+0  00000+0 0  9994
2 63524   1.0387  82.7755 0002371 300.4090 316.5395  1.00272271  4192
TIANLIAN 2-05           
1 63662U 25084A   26158.06446818  .00000136  00000+0  00000+0 0  9999
2 63662   4.4779 279.9503 0003512 145.3561 233.7856  1.00271781  4282
TJS-19                  
1 63924U 25097A   26158.77620965 -.00000264  00000+0  00000+0 0  9992
2 63924   3.3030 317.2737 0002038 234.6960 124.9234  1.00269548  4046
CHINASAT 3B             
1 64062U 25106A   26158.80647295 -.00000030  00000+0  00000+0 0  9997
2 64062   0.0381 144.0150 0002886 330.8027 239.0534  1.00271809  3966
SXM-10                  
1 64290U 25122A   26158.67904671 -.00000002  00000+0  00000+0 0  9996
2 64290   0.0171  15.4671 0001754 357.0715  11.8306  1.00270656  3583
COSMOS 2589             
1 64467U 25131A   26158.75242078 -.00000276  00000+0  00000+0 0  9990
2 64467   0.0438  71.9827 0001205  72.8146 120.2091  1.00272244  3464
CHINASAT 9C             
1 64470U 25132A   26158.72814557 -.00000233  00000+0  00000+0 0  9992
2 64470   0.0283 261.2593 0002843 175.9684 173.2475  1.00272651  4053
MTG-S1                  
1 64723U 25143A   26158.70139454 -.00000017  00000+0  00000+0 0  9999
2 64723   0.6118 336.7868 0001072  31.0379 137.3027  1.00271639  3324
DROR 1                  
1 64784U 25148A   26158.70130786 -.00000019  00000+0  00000+0 0  9992
2 64784   0.0092 353.9091 0002882  37.2632 113.3936  1.00271715  3200
SHIYAN-29               
1 65486U 25196A   26158.77491302 -.00000258  00000+0  00000+0 0  9991
2 65486  28.8107  18.6555 0010893 171.3645  79.2758  1.00257132  2781
NUSANTARA LIMA (NUSANT*)
1 65588U 25205A   26158.71123859 -.00000343  00000+0  00000+0 0  9993
2 65588   0.0350 146.7013 0000456 322.1604 156.1490  1.00273144  2625
TJS-20                  
1 66142U 25238A   26158.75187483  .00000035  00000+0  00000+0 0  9990
2 66142   5.4916 299.5864 0004747 156.6079 133.0166  1.00272679  2236
CMS-03 (GSAT-7R)        
1 66311U 25249B   26158.71673919 -.00000062  00000+0  00000+0 0  9991
2 66311   0.0271 260.6507 0001826 173.6897 153.8026  1.00271435  2250
VIASAT-3 F2             
1 66454U 25261A   26158.75765284  .00000000  00000+0  00000+0 0  9995
2 66454   0.0131 105.6233 0000117 285.8867  58.4009  1.00266584  2690
SHIJIAN-28 (SJ-28)      
1 66549U 25277A   26158.72523933 -.00000347  00000+0  00000+0 0  9992
2 66549   4.5638 272.2840 0000481 355.5633   6.2502  1.00268560  2067
TJS-22                  
1 66990U 25290A   26157.90325931  .00000007  00000+0  00000+0 0  9996
2 66990   1.5530 286.4527 0001988 332.9663  27.5119  1.00271914  1920
TJS-23                  
1 67226U 25306A   26158.62812410  .00000028  00000+0  00000+0 0  9993
2 67226   5.6092 297.5406 0005086 164.9860 195.1087  1.00273160  1791
FENGYUN 4C              
1 67246U 25312A   26158.30062064 -.00000308  00000+0  00000+0 0  9991
2 67246   0.0424 147.7402 0000559  25.5803 323.6123  1.00271188  1687
SHIJIAN-29A (SJ-29A)    
1 67302U 25315A   26158.73537781 -.00000052  00000+0  00000+0 0  9993
2 67302   3.3727  95.3464 0003287  21.0962 117.6765  1.00269963  1520
SHIJIAN-29B (SJ-29B)    
1 67403U 25315C   26158.73251080 -.00000053  00000+0  00000+0 0  9991
2 67403   3.3716  95.3392 0003619  24.7118 113.0781  1.00269952  1595
ELEKTRO-L 5             
1 67756U 26028A   26158.07913463 -.00000083  00000+0  00000+0 0  9994
2 67756   0.2701 308.2377 0001589 182.1941 229.5901  1.00271265  1151
JAM-E JAM 1             
1 67757U 26028B   26158.78538653  .00000171  00000+0  00000+0 0  9994
2 67757   0.2808 299.4305 0000878 300.7275 332.6627  1.00271509  1028
